NORAD_CAT_ID,OBJECT_NAME,OBJECT_TYPE,EPOCH,MEAN_MOTION,ECCENTRICITY,INCLINATION,RA_OF_ASC_NODE,ARG_OF_PERICENTER,MEAN_ANOMALY,BSTAR,MEAN_MOTION_DOT,MEAN_MOTION_DDOT,TLE_LINE0,TLE_LINE1,TLE_LINE2,SEMIMAJOR_AXIS,PERIOD,APOGEE,PERIGEE,DECAYED
53156.0,STARLINK-4087,PAYLOAD,2024-07-06 20:18:52,15.08830759,0.0001154,53.2176,26.1766,89.7823,270.3301,-3.4024e-05,-8.29e-06,0.0,0 STARLINK-4087,1 53156U 22083AA  24188.84644074 -.00000829  00000-0 -34024-4 0  9993,2 53156  53.2176  26.1766 0001154  89.7823 270.3301 15.08830759109778,6917.909,95.438,540.572,538.975,0.0
53156.0,STARLINK-4087,PAYLOAD,2024-07-07 05:51:10,15.08839544,0.0001232,53.2186,24.3926,93.381,266.7323,2.8476e-05,1.65e-06,0.0,0 STARLINK-4087,1 53156U 22083AA  24189.24387454  .00000165  00000-0  28476-4 0  9999,2 53156  53.2186  24.3926 0001232  93.3810 266.7323 15.08839544109832,6917.882,95.438,540.599,538.894,0.0
53156.0,STARLINK-4087,PAYLOAD,2024-07-08 12:03:30,15.08835285,0.0001331,53.2181,18.7408,74.4494,285.6645,-8.4329e-05,-1.63e-05,0.0,0 STARLINK-4087,1 53156U 22083AA  24190.50244202 -.00001630  00000-0 -84329-4 0  9992,2 53156  53.2181  18.7408 0001331  74.4494 285.6645 15.08835285110025,6917.895,95.438,540.681,538.839,0.0
53156.0,STARLINK-4087,PAYLOAD,2024-07-08 20:00:26,15.08833726,0.0001179,53.2191,17.2561,81.6366,278.4759,0.00012782,1.747e-05,0.0,0 STARLINK-4087,1 53156U 22083AA  24190.83364014  .00001747  00000-0  12782-3 0  9992,2 53156  53.2191  17.2561 0001179  81.6366 278.4759 15.08833726109446,6917.9,95.438,540.58,538.949,0.0
53156.0,STARLINK-4087,PAYLOAD,2024-07-09 11:54:18,15.08829882,0.0001331,53.2201,14.2836,90.906,269.2085,4.4881e-06,-2.16e-06,0.0,0 STARLINK-4087,1 53156U 22083AA  24191.49604722 -.00000216  00000-0  44881-5 0  9996,2 53156  53.2201  14.2836 0001331  90.9060 269.2085 15.08829882109543,6917.911,95.438,540.697,538.856,0.0
53156.0,STARLINK-4087,PAYLOAD,2024-07-09 19:51:13,15.08840141,0.0001159,53.2182,12.7962,74.1362,285.9758,-3.5049e-05,-8.46e-06,0.0,0 STARLINK-4087,1 53156U 22083AA  24191.82724244 -.00000846  00000-0 -35049-4 0  9990,2 53156  53.2182  12.7962 0001159  74.1362 285.9758 15.08840141110221,6917.88,95.438,540.547,538.943,0.0
53156.0,STARLINK-4087,PAYLOAD,2024-07-10 11:45:04,15.08836503,0.0001211,53.2184,9.8217,81.8389,278.274,9.6879e-05,1.254e-05,0.0,0 STARLINK-4087,1 53156U 22083AA  24192.48964103  .00001254  00000-0  96879-4 0  9993,2 53156  53.2184   9.8217 0001211  81.8389 278.2740 15.08836503109698,6917.891,95.438,540.594,538.918,0.0
53156.0,STARLINK-4087,PAYLOAD,2024-07-11 14:46:38,15.08837931,0.0001333,53.2171,4.7665,81.6793,278.435,0.00013385,1.843e-05,0.0,0 STARLINK-4087,1 53156U 22083AA  24193.61571855  .00001843  00000-0  13385-3 0  9991,2 53156  53.2171   4.7665 0001333  81.6793 278.4350 15.08837931109861,6917.887,95.438,540.674,538.83,0.0
53156.0,STARLINK-4087,PAYLOAD,2024-07-11 17:57:24,15.08836484,0.0001012,53.2169,4.1692,93.0897,267.0211,0.00020295,2.943e-05,0.0,0 STARLINK-4087,1 53156U 22083AA  24193.74819762  .00002943  00000-0  20295-3 0  9997,2 53156  53.2169   4.1692 0001012  93.0897 267.0211 15.08836484110514,6917.891,95.438,540.456,539.056,0.0
53156.0,STARLINK-4087,PAYLOAD,2024-07-12 14:37:25,15.08835631,0.0001168,53.2165,0.3028,100.1697,259.9427,4.8666e-05,4.87e-06,0.0,0 STARLINK-4087,1 53156U 22083AA  24194.60932269  .00000487  00000-0  48666-4 0  9995,2 53156  53.2165   0.3028 0001168 100.1697 259.9427 15.08835631110018,6917.894,95.438,540.567,538.951,0.0
53156.0,STARLINK-4087,PAYLOAD,2024-07-12 17:48:12,15.08823732,9.13e-05,53.2169,359.7097,94.6179,265.4917,0.00021728,3.17e-05,0.0,0 STARLINK-4087,1 53156U 22083AA  24194.74180784  .00003170  00000-0  21728-3 0  9998,2 53156  53.2169 359.7097 0000913  94.6179 265.4917 15.08823732110664,6917.93,95.439,540.427,539.164,0.0
53156.0,STARLINK-4087,PAYLOAD,2024-07-13 11:17:26,15.08834109,0.0001085,53.2174,356.4407,89.744,270.3677,9.8733e-05,1.284e-05,0.0,0 STARLINK-4087,1 53156U 22083AA  24195.47044264  .00001284  00000-0  98733-4 0  9996,2 53156  53.2174 356.4407 0001085  89.7440 270.3677 15.08834109110776,6917.898,95.438,540.514,539.013,0.0
53156.0,STARLINK-4087,PAYLOAD,2024-07-13 14:28:12,15.08837207,0.0001009,53.2173,355.8456,89.9257,270.1851,3.5091e-06,-2.32e-06,0.0,0 STARLINK-4087,1 53156U 22083AA  24195.60292399 -.00000232  00000-0  35091-5 0  9997,2 53156  53.2173 355.8456 0001009  89.9257 270.1851 15.08837207110163,6917.889,95.438,540.452,539.056,0.0
53156.0,STARLINK-4087,PAYLOAD,2024-07-13 17:38:58,15.08836902,0.0001022,53.2172,355.2489,96.4668,263.6441,5.0005e-05,5.08e-06,0.0,0 STARLINK-4087,1 53156U 22083AA  24195.73540283  .00000508  00000-0  50005-4 0  9995,2 53156  53.2172 355.2489 0001022  96.4668 263.6441 15.08836902110181,6917.89,95.438,540.462,539.048,0.0
53156.0,STARLINK-4087,PAYLOAD,2024-07-14 03:11:16,15.08849119,0.0001096,53.219,353.4644,91.608,268.5037,0.000147,2.053e-05,0.0,0 STARLINK-4087,1 53156U 22083AA  24196.13283283  .00002053  00000-0  14700-3 0  9992,2 53156  53.2190 353.4644 0001096  91.6080 268.5037 15.08849119110875,6917.853,95.437,540.476,538.959,0.0
53156.0,STARLINK-4087,PAYLOAD,2024-07-14 11:08:14,15.08825325,9.8e-05,53.2182,351.9769,77.5052,282.6049,-1.3109e-05,-4.96e-06,0.0,0 STARLINK-4087,1 53156U 22083AA  24196.46405297 -.00000496  00000-0 -13109-4 0  9993,2 53156  53.2182 351.9769 0000980  77.5052 282.6049 15.08825325110929,6917.925,95.438,540.468,539.112,0.0
53156.0,STARLINK-4087,PAYLOAD,2024-07-14 14:18:59,15.08832459,0.0001283,53.2184,351.3857,91.6832,268.4307,8.5517e-05,1.073e-05,0.0,0 STARLINK-4087,1 53156U 22083AA  24196.59652696  .00001073  00000-0  85517-4 0  9996,2 53156  53.2184 351.3857 0001283  91.6832 268.4307 15.08832459110311,6917.903,95.438,540.656,538.881,0.0
53156.0,STARLINK-4087,PAYLOAD,2024-07-14 17:29:45,15.08840988,0.0001038,53.2182,350.7889,77.777,282.3338,0.00012723,1.738e-05,0.0,0 STARLINK-4087,1 53156U 22083AA  24196.72900109  .00001738  00000-0  12723-3 0  9992,2 53156  53.2182 350.7889 0001038  77.7770 282.3338 15.08840988110967,6917.877,95.437,540.46,539.024,0.0
53156.0,STARLINK-4087,PAYLOAD,2024-07-15 03:02:03,15.08855175,0.0001176,53.2193,349.0052,85.2771,274.8355,0.00022112,3.234e-05,0.0,0 STARLINK-4087,1 53156U 22083AA  24197.12642832  .00003234  00000-0  22112-3 0  9999,2 53156  53.2193 349.0052 0001176  85.2771 274.8355 15.08855175111027,6917.834,95.437,540.513,538.885,0.0
53156.0,STARLINK-4087,PAYLOAD,2024-07-15 10:59:01,15.08824658,0.0001317,53.2196,347.52,95.2608,264.8534,-2.0236e-05,-6.1e-06,0.0,0 STARLINK-4087,1 53156U 22083AA  24197.45765569 -.00000610  00000-0 -20236-4 0  9991,2 53156  53.2196 347.5200 0001317  95.2608 264.8534 15.08824658111070,6917.927,95.439,540.703,538.881,0.0
53156.0,STARLINK-4087,PAYLOAD,2024-07-15 14:09:47,15.08830276,0.0001548,53.2204,346.9277,104.5233,255.5931,4.0594e-05,3.58e-06,0.0,0 STARLINK-4087,1 53156U 22083AA  24197.59013251  .00000358  00000-0  40594-4 0  9996,2 53156  53.2204 346.9277 0001548 104.5233 255.5931 15.08830276110464,6917.91,95.438,540.846,538.704,0.0
53156.0,STARLINK-4087,PAYLOAD,2024-07-15 20:31:19,15.08836011,0.0001484,53.2193,345.7338,89.997,270.1192,2.2961e-05,7.7e-07,0.0,0 STARLINK-4087,1 53156U 22083AA  24197.85508481  .00000077  00000-0  22961-4 0  9995,2 53156  53.2193 345.7338 0001484  89.9970 270.1192 15.08836011111139,6917.893,95.438,540.784,538.731,0.0
53156.0,STARLINK-4087,PAYLOAD,2024-07-16 14:00:34,15.08836957,0.0001527,53.2178,342.4657,90.7647,269.352,7.9525e-05,9.78e-06,0.0,0 STARLINK-4087,1 53156U 22083AA  24198.58372692  .00000978  00000-0  79525-4 0  9997,2 53156  53.2178 342.4657 0001527  90.7647 269.3520 15.08836957110615,6917.89,95.438,540.811,538.698,0.0
53156.0,STARLINK-4087,PAYLOAD,2024-07-16 17:11:19,15.08849346,0.0001148,53.2174,341.8683,78.9139,281.1982,0.00018409,2.644e-05,0.0,0 STARLINK-4087,1 53156U 22083AA  24198.71619998  .00002644  00000-0  18409-3 0  9990,2 53156  53.2174 341.8683 0001148  78.9139 281.1982 15.08849346111268,6917.852,95.437,540.511,538.923,0.0
53156.0,STARLINK-4087,PAYLOAD,2024-07-17 02:43:37,15.08865524,0.0001144,53.2178,340.0827,58.4723,301.6381,0.00029537,4.419e-05,0.0,0 STARLINK-4087,1 53156U 22083AA  24199.11362747  .00004419  00000-0  29537-3 0  9998,2 53156  53.2178 340.0827 0001144  58.4723 301.6381 15.08865524111325,6917.802,95.436,540.459,538.876,0.0
53156.0,STARLINK-4087,PAYLOAD,2024-07-17 09:05:12,15.08822845,0.0001718,53.2186,338.8985,80.1265,279.9921,-1.3707e-05,-5.06e-06,0.0,0 STARLINK-4087,1 53156U 22083AA  24199.37861213 -.00000506  00000-0 -13707-4 0  9996,2 53156  53.2186 338.8985 0001718  80.1265 279.9921 15.08822845111364,6917.933,95.439,540.986,538.609,0.0
53156.0,STARLINK-4087,PAYLOAD,2024-07-17 13:51:21,15.08824481,0.0001515,53.2194,338.0074,74.0087,286.1072,2.2227e-05,6.6e-07,0.0,0 STARLINK-4087,1 53156U 22083AA  24199.57733432  .00000066  00000-0  22227-4 0  9995,2 53156  53.2194 338.0074 0001515  74.0087 286.1072 15.08824481110761,6917.928,95.439,540.841,538.745,0.0
53156.0,STARLINK-4087,PAYLOAD,2024-07-17 17:02:07,15.08839839,0.000126,53.2175,337.4077,69.1174,290.9953,0.00014516,2.023e-05,0.0,0 STARLINK-4087,1 53156U 22083AA  24199.70980614  .00002023  00000-0  14516-3 0  9992,2 53156  53.2175 337.4077 0001260  69.1174 290.9953 15.08839839111412,6917.881,95.438,540.618,538.874,0.0
53156.0,STARLINK-4087,PAYLOAD,2024-07-18 13:42:08,15.08842472,0.0001449,53.2172,333.543,73.3512,286.7639,0.00020712,3.01e-05,0.0,0 STARLINK-4087,1 53156U 22083AA  24200.57093001  .00003010  00000-0  20712-3 0  9997,2 53156  53.2172 333.5430 0001449  73.3512 286.7639 15.08842472110916,6917.873,95.437,540.74,538.735,0.0
53156.0,STARLINK-4087,PAYLOAD,2024-07-18 15:17:31,15.08843685,0.0001333,53.2172,333.2445,66.8125,293.3007,0.00027996,4.171e-05,0.0,0 STARLINK-4087,1 53156U 22083AA  24200.63716880  .00004171  00000-0  27996-3 0  9991,2 53156  53.2172 333.2445 0001333  66.8125 293.3007 15.08843685110929,6917.869,95.437,540.656,538.812,0.0
